[{"OBJECT_NAME":"STARLINK-32674","OBJECT_ID":"2024-251C","EPOCH":"2026-03-09T21:26:15.066816","MEAN_MOTION":15.30221561,"ECCENTRICITY":0.00012704,"INCLINATION":53.1582,"RA_OF_ASC_NODE":334.075,"ARG_OF_PERICENTER":119.0902,"MEAN_ANOMALY":241.0226,"EPHEMERIS_TYPE":0,"CLASSIFICATION_TYPE":"U","NORAD_CAT_ID":62434,"ELEMENT_SET_NO":999,"REV_AT_EPOCH":6798,"BSTAR":0.0011942047,"MEAN_MOTION_DOT":0.00035201,"MEAN_MOTION_DDOT":0},{"OBJECT_NAME":"SL-3 R\/B","OBJECT_ID":"1981-065B","EPOCH":"2026-03-09T21:58:16.284000","MEAN_MOTION":15.33300883,"ECCENTRICITY":0.00117648,"INCLINATION":97.6337,"RA_OF_ASC_NODE":111.1786,"ARG_OF_PERICENTER":10.529,"MEAN_ANOMALY":349.6196,"EPHEMERIS_TYPE":0,"CLASSIFICATION_TYPE":"U","NORAD_CAT_ID":12586,"ELEMENT_SET_NO":999,"REV_AT_EPOCH":43499,"BSTAR":0.00030084921,"MEAN_MOTION_DOT":9.62e-5,"MEAN_MOTION_DDOT":0}]
